GLOBALSTAR M063 [+]     
1 26081U 00008A   24070.96364912 -.00000082  00000+0  12252-4 0  9994
2 26081  51.9927 251.5178 0005328 138.2961  30.1865 11.86151942102609
GLOBALSTAR M060 [-]     
1 26083U 00008C   24070.85275017 -.00000090  00000+0  10663-4 0  9994
2 26083  52.0006 272.7303 0002433 264.2821 201.3225 12.17628349 95928
GLOBALSTAR M065 [+]     
1 31571U 07020A   24070.75589925 -.00000087  00000+0  94789-4 0  9995
2 31571  51.9878 196.7494 0010104   5.2310 142.5013 12.61964215774892
GLOBALSTAR M069 [+]     
1 31573U 07020C   24071.22051064 -.00000059  00000+0  24803-3 0  9996
2 31573  51.9942 151.2899 0001011 149.3692 229.2614 12.62266914776019
GLOBALSTAR M072 [+]     
1 31574U 07020D   24071.24946525 -.00000112  00000+0 -47195-4 0  9995
2 31574  52.0062 247.0500 0001301  93.1872  77.4506 12.62268428774514
